1 65077U 25166A   25249.87397102  .00012937  00000+0  23296-3 0  9990
2 65077  51.6325 262.1963 0004212 309.4705  50.5911 15.50156361  2146
